CASSIOPE                
1 39265U 13055A   21056.55810571  .00004816  00000-0  13630-3 0  9990
2 39265  80.9662  49.4876 0651435 282.1196  70.7769 14.31381360383986
ZACUBE-1 (TSHEPISOSAT)  
1 39417U 13066B   21055.99337273  .00000314  00000-0  45335-4 0  9998
2 39417  97.5839  46.2089 0058935 168.3824 191.8766 14.81434099392429
CINEMA-3 (KHUSAT-2)     
1 39426U 13066L   21056.33080089  .00000278  00000-0  51282-4 0  9994
2 39426  97.7415  13.9096 0103424 325.2891  34.1595 14.69632938389188
TRITON-1                
1 39427U 13066M   21056.27497456  .00000494  00000-0  86271-4 0  9994
2 39427  97.7619   9.6736 0113311 350.3585   9.5445 14.68160217388750
DELFI-N3XT              
1 39428U 13066N   21056.56310502  .00000836  00000-0  13935-3 0  9999
2 39428  97.7675   8.3846 0120258   2.1339 358.0355 14.67884075388552
GOMX-1                  
1 39430U 13066Q   21056.51564853  .00000265  00000-0  56326-4 0  9995
2 39430  97.8103 346.0370 0151964 107.2233 254.5656 14.59539762386715
BRITE-PL1 (LEM)         
1 39431U 13066R   21056.44247918  .00000065  00000-0  24842-4 0  9994
2 39431  97.7683 305.7838 0200733 265.1195  92.7056 14.47118428383373
ICUBE-1                 
1 39432U 13066S   21056.53910115  .00000672  00000-0  73012-4 0  9998
2 39432  97.4840  80.4264 0033112  57.9903 302.4526 14.90775496393630
HUMSAT-D                
1 39433U 13066T   21056.51136438  .00000798  00000-0  81811-4 0  9990
2 39433  97.4821  87.0503 0031319  39.1804 321.1675 14.92752132394041
VELOX-PII               
1 39438U 13066Y   21055.99881290  .00000250  00000-0  40157-4 0  9990
2 39438  97.6303  36.7116 0069552 210.5966 149.1181 14.78153510390469
FIRST-MOVE              
1 39439U 13066Z   21056.44421415  .00000702  00000-0  90748-4 0  9994
2 39439  97.5902  47.8361 0065160 165.4524 194.8585 14.82443100391354
CUBEBUG-2 (LO-74)       
1 39440U 13066AA  21056.33998755  .00000343  00000-0  54480-4 0  9994
2 39440  97.6628  31.3089 0078586 238.8309 120.5180 14.76169486389886
NEE-02 KRYSAOR          
1 39441U 13066AB  21056.38979025  .00000237  00000-0  40764-4 0  9991
2 39441  97.6719  28.7455 0080091 249.2332 110.0283 14.75129325389695
FUNCUBE-1 (AO-73)       
1 39444U 13066AE  21056.24824783  .00000434  00000-0  59015-4 0  9997
2 39444  97.5757  48.7886 0058277 158.5492 201.8183 14.82323665390814
HINCUBE                 
1 39445U 13066AF  21056.44598943  .00000401  00000-0  55304-4 0  9997
2 39445  97.5771  48.8328 0058278 159.6002 200.7559 14.82157193390796
UWE-3                   
1 39446U 13066AG  21056.16648362  .00000295  00000-0  45530-4 0  9999
2 39446  97.6252  38.1851 0069072 204.3801 155.4139 14.78702679389916
AIST-1 (RS-41)          
1 39492U 13078C   21056.45573156  .00000260  00000-0  25615-4 0  9997
2 39492  82.4221 332.8024 0018281 245.6106 114.3203 14.87992751388842
SPROUT                  
1 39770U 14029E   21056.53730218  .00001140  00000-0  12965-3 0  9997
2 39770  97.9047 168.0038 0008380 209.6192 150.4576 14.88199094366699
UNISAT-6                
1 40012U 14033C   21056.51349887  .00000343  00000-0  58097-4 0  9990
2 40012  97.6857 264.7483 0056765 262.2425  97.2337 14.74248036359701
BUGSAT-1 (TITA)         
1 40014U 14033E   21056.56734577  .00000835  00000-0  80132-4 0  9992
2 40014  98.0985  32.2224 0031489 172.1953 187.9756 14.95656138364844
DUCHIFAT-1              
1 40021U 14033M   21056.54856197  .00000623  00000-0  68472-4 0  9999
2 40021  97.9636 355.6314 0012918 166.8213 193.3344 14.91194400363602
NANOSATC-BR1            
1 40024U 14033Q   21056.24583888  .00000622  00000-0  69879-4 0  9994
2 40024  97.9443 350.8229 0012123 172.9123 187.2268 14.90316037362886
QB50P1                  
1 40025U 14033R   21056.22437120  .00000557  00000-0  64628-4 0  9994
2 40025  97.9280 346.6643 0012195 181.3387 178.7799 14.89338639362710
DTUSAT-2                
1 40030U 14033W   21056.52954216  .00000475  00000-0  56606-4 0  9999
2 40030  97.9129 343.8361 0011747 176.2499 183.8808 14.88899954362666
QB50P2                  
1 40032U 14033Y   21056.55664545  .00000464  00000-0  55518-4 0  9996
2 40032  97.9135 343.8680 0011715 177.0676 183.0612 14.88854149362640
POLYITAN-1              
1 40042U 14033AJ  21056.52987363  .00000633  00000-0  73055-4 0  9994
2 40042  97.9372 347.6826 0014567 172.2184 187.9261 14.89126919362659
TIGRISAT                
1 40043U 14033AK  21055.53675504  .00000241  00000-0  42791-4 0  9994
2 40043  97.6833 265.2124 0058418 263.4884  95.9673 14.74482998359194
AISAT                   
1 40054U 14034B   21056.39338898  .00000630  00000-0  94226-4 0  9996
2 40054  98.3047 205.8505 0013414  47.1271 313.1063 14.78296121358976
CANX-4                  
1 40055U 14034C   21055.60890079  .00000163  00000-0  32231-4 0  9993
2 40055  98.2860 194.0903 0015472  80.7859 279.5098 14.75012891358274
CANX-5                  
1 40056U 14034D   21056.35925834  .00000162  00000-0  32112-4 0  9992
2 40056  98.2861 194.8463 0015481  78.8214 281.4734 14.75004182349192
VELOX-I                 
1 40057U 14034E   21056.50083747  .00000473  00000-0  73097-4 0  9990
2 40057  98.3093 206.9588 0011927  60.3585 299.8811 14.78075220359006
METEOR-M 2              
1 40069U 14037A   21056.52411689 -.00000033  00000-0  38805-5 0  9990
2 40069  98.4750  90.0978 0004385 268.1164  91.9511 14.20681145344149
DX1                     
1 40071U 14037C   21056.53645206  .00000171  00000-0  29423-4 0  9995
2 40071  98.4589 255.0073 0009491  52.0517 308.1562 14.81456503358729
UKUBE-1                 
1 40074U 14037F   21056.55803828  .00000453  00000-0  61007-4 0  9993
2 40074  98.4403 265.8627 0005076  37.0568 323.1029 14.84463913359301
FIREBIRD 3              
1 40377U 15003B   21056.59438247  .00007189  00000-0  26600-3 0  9998
2 40377  99.0831 174.6033 0119937 187.2482 172.7019 15.21537282335777
FIREBIRD 4              
1 40378U 15003C   21056.57436544  .00006653  00000-0  24610-3 0  9999
2 40378  99.0835 174.7022 0120046 187.1405 172.8121 15.21578660335778
GRIFEX                  
1 40379U 15003D   21056.52759289  .00004236  00000-0  17478-3 0  9998
2 40379  99.0823 164.9000 0129528 217.4607 141.7541 15.17427912335205
CP10 (EXOCUBE)          
1 40380U 15003E   21056.22389839  .00003252  00000-0  14251-3 0  9990
2 40380  99.0857 159.4048 0134730 236.1717 122.6626 15.15195024334818
DEORBITSAIL             
1 40719U 15032E   21056.51325506  .00000617  00000-0  93981-4 0  9991
2 40719  97.8433 304.5193 0017510 107.7512 252.5611 14.77247295303454
NUDT-PHONESAT           
1 40900U 15049B   21056.52750436  .00004758  00000-0  18992-3 0  9994
2 40900  97.4261  71.4115 0012719 165.5989 354.5498 15.25572648301755
XW-2A                   
1 40903U 15049E   21056.43816356  .00004620  00000-0  10135-3 0  9990
2 40903  97.2538 111.2233 0014318  67.7911 348.3696 15.44464225305502
XW-2C                   
1 40906U 15049H   21056.47623696  .00001482  00000-0  79403-4 0  9997
2 40906  97.4843  60.2534 0013633 210.8439 301.6306 15.16506376300595
XW-2D                   
1 40907U 15049J   21056.49289701  .00001410  00000-0  75085-4 0  9998
2 40907  97.4838  60.0293 0013028 207.1840 304.0136 15.16793896300620
LILACSAT-2              
1 40908U 15049K   21056.49498049  .00000587  00000-0  35631-4 0  9993
2 40908  97.5012  58.0357 0014552 222.4603 289.1382 15.14298689300280
XW-2E                   
1 40909U 15049L   21056.49304322  .00002145  00000-0  10522-3 0  9997
2 40909  97.4669  63.8935 0012775 193.3906 318.2265 15.19140322300932
XW-2F                   
1 40910U 15049M   21056.52693481  .00002161  00000-0  10742-3 0  9992
2 40910  97.4729  63.0011 0014100 193.2176 325.4402 15.18645277300739
XW-2B                   
1 40911U 15049N   21056.49106735  .00001486  00000-0  79119-4 0  9993
2 40911  97.4840  60.7220 0012952 207.6933 311.2490 15.16714454300512
KAITUO 1B               
1 40912U 15049P   21056.51028461  .00002349  00000-0  10840-3 0  9990
2 40912  97.4486  67.3231 0014993 167.5909 343.4881 15.21128834301179
TIANWANG 1C (TW-1C)     
1 40926U 15051B   21056.44064455  .02633745  22183-5  13669-2 0  9997
2 40926  97.0252 119.3435 0005041 251.4174 119.2932 16.20330625306899
TIANWANG 1B (TW-1B)     
1 40927U 15051C   21056.54241759  .00218340  00000-0  75806-3 0  9992
2 40927  97.0465 115.9825 0002995 190.5427 279.4308 15.88884715306556
TIANWANG 1A (TW-1A)     
1 40928U 15051D   21056.58169017  .00006997  00000-0  15187-3 0  9992
2 40928  97.0886  84.1952 0009324 354.9434 162.7534 15.44636075304413
LAPAN-A2                
1 40931U 15052B   21055.27845257  .00000684  00000-0  61789-5 0  9997
2 40931   5.9997 339.5905 0012385 244.9960 114.8756 14.76663331292549
LQSAT                   
1 40958U 15057A   21056.47290456  .00000016  00000-0  99741-5 0  9997
2 40958  97.8192 117.1303 0019472  59.1998 301.1124 14.73156921289756
ATHENOXAT 1             
1 41168U 15077C   21056.52300597  .00003201  00000-0  12898-3 0  9992
2 41168  14.9901   3.6697 0011596  54.9212  90.7317 15.15225699287775
GALASSIA                
1 41170U 15077E   21056.16841169  .00003233  00000-0  12952-3 0  9996
2 41170  14.9901 357.2709 0012190  76.9610 283.2071 15.15483043287705
VELOX-II                
1 41171U 15077F   21056.32051073  .00002596  00000-0  10779-3 0  9998
2 41171  14.9922  49.5296 0008540 317.0877  42.8777 15.12249346287300
CHUBUSAT-2              
1 41338U 16012B   21056.57660058  .00000553  00000-0  36125-4 0  9994
2 41338  31.0025 177.2734 0013533 104.6214 255.5922 15.00449001275789
CHUBUSAT-3              
1 41339U 16012C   21056.47778903  .00000588  00000-0  38671-4 0  9999
2 41339  31.0104 175.2467 0013216 110.7132 249.4927 15.00603677275760
HORYU-4                 
1 41340U 16012D   21056.49561802  .00000923  00000-0  62515-4 0  9998
2 41340  31.0045 160.0578 0013662 140.9378 219.2246 15.01756447275947
